IRIDIUM 173             
1 43925U 19002D   26087.81336701  .00000198  00000+0  63758-4 0  9997
2 43925  86.4004  27.1419 0002072  85.8365 274.3068 14.34218413377432
IRIDIUM 169             
1 43926U 19002E   26087.84577358  .00000369  00000+0  11427-3 0  9991
2 43926  86.4199  58.7698 0001852 105.0059 255.1344 14.38608583378673
IRIDIUM 172             
1 43927U 19002F   26087.80702502  .00000110  00000+0  32114-4 0  9990
2 43927  86.4005  27.1523 0002220  81.3430 278.8017 14.34218034377443
IRIDIUM 175             
1 43928U 19002G   26087.73095766  .00000354  00000+0  98464-4 0  9990
2 43928  86.4533 324.1721 0005012 112.6375 247.5356 14.43580601387372
IRIDIUM 171             
1 43929U 19002H   26087.85776484  .00000243  00000+0  79577-4 0  9998
2 43929  86.4013  27.4285 0002300  89.2324 270.9135 14.34218027377446
IRIDIUM 170             
1 43930U 19002J   26087.82735949  .00001053  00000+0  16316-3 0  9999
2 43930  86.6127  27.1265 0002469  82.7711 277.3786 14.72248992387434
IRIDIUM 167             
1 43931U 19002K   26087.85142187  .00000299  00000+0  99582-4 0  9997
2 43931  86.4004  27.1555 0002282  94.5429 265.6027 14.34219362377444
IRIDIUM 181             
1 56726U 23068S   26087.75368989  .00000264  00000+0  72446-4 0  9991
2 56726  86.4444  90.4206 0002548  84.9479 275.2013 14.43309215150838
IRIDIUM 177             
1 56727U 23068T   26087.80910999  .00001384  00000+0  17865-3 0  9999
2 56727  86.2021   6.9534 0002163  85.3831 274.7637 14.80219209154478
IRIDIUM 174             
1 56728U 23068U   26087.81497907  .00000200  00000+0  27799-4 0  9994
2 56728  86.6133  27.2708 0002433  80.5504 279.5988 14.72253978154193
IRIDIUM 178             
1 56729U 23068V   26087.86578332  .00001463  00000+0  18914-3 0  9992
2 56729  86.6513  58.9153 0002842  89.7718 270.3829 14.80234020154484
IRIDIUM 179             
1 56730U 23068W   26087.86038974  .00001425  00000+0  18415-3 0  9991
2 56730  86.6735  67.6644 0002637  96.3725 263.7797 14.80224997154480
