[{"OBJECT_NAME":"IRIDIUM 173","OBJECT_ID":"2019-002D","EPOCH":"2026-03-28T19:31:14.909664","MEAN_MOTION":14.34218413,"ECCENTRICITY":0.0002072,"INCLINATION":86.4004,"RA_OF_ASC_NODE":27.1419,"ARG_OF_PERICENTER":85.8365,"MEAN_ANOMALY":274.3068,"EPHEMERIS_TYPE":0,"CLASSIFICATION_TYPE":"U","NORAD_CAT_ID":43925,"ELEMENT_SET_NO":999,"REV_AT_EPOCH":37743,"BSTAR":6.3758e-5,"MEAN_MOTION_DOT":1.98e-6,"MEAN_MOTION_DDOT":0},{"OBJECT_NAME":"IRIDIUM 169","OBJECT_ID":"2019-002E","EPOCH":"2026-03-28T20:17:54.837312","MEAN_MOTION":14.38608583,"ECCENTRICITY":0.0001852,"INCLINATION":86.4199,"RA_OF_ASC_NODE":58.7698,"ARG_OF_PERICENTER":105.0059,"MEAN_ANOMALY":255.1344,"EPHEMERIS_TYPE":0,"CLASSIFICATION_TYPE":"U","NORAD_CAT_ID":43926,"ELEMENT_SET_NO":999,"REV_AT_EPOCH":37867,"BSTAR":0.00011427,"MEAN_MOTION_DOT":3.69e-6,"MEAN_MOTION_DDOT":0},{"OBJECT_NAME":"IRIDIUM 172","OBJECT_ID":"2019-002F","EPOCH":"2026-03-28T19:22:06.961728","MEAN_MOTION":14.34218034,"ECCENTRICITY":0.000222,"INCLINATION":86.4005,"RA_OF_ASC_NODE":27.1523,"ARG_OF_PERICENTER":81.343,"MEAN_ANOMALY":278.8017,"EPHEMERIS_TYPE":0,"CLASSIFICATION_TYPE":"U","NORAD_CAT_ID":43927,"ELEMENT_SET_NO":999,"REV_AT_EPOCH":37744,"BSTAR":3.2114e-5,"MEAN_MOTION_DOT":1.1e-6,"MEAN_MOTION_DDOT":0},{"OBJECT_NAME":"IRIDIUM 175","OBJECT_ID":"2019-002G","EPOCH":"2026-03-28T17:32:34.741824","MEAN_MOTION":14.43580601,"ECCENTRICITY":0.0005012,"INCLINATION":86.4533,"RA_OF_ASC_NODE":324.1721,"ARG_OF_PERICENTER":112.6375,"MEAN_ANOMALY":247.5356,"EPHEMERIS_TYPE":0,"CLASSIFICATION_TYPE":"U","NORAD_CAT_ID":43928,"ELEMENT_SET_NO":999,"REV_AT_EPOCH":38737,"BSTAR":9.8464e-5,"MEAN_MOTION_DOT":3.54e-6,"MEAN_MOTION_DDOT":0},{"OBJECT_NAME":"IRIDIUM 171","OBJECT_ID":"2019-002H","EPOCH":"2026-03-28T20:35:10.882176","MEAN_MOTION":14.34218027,"ECCENTRICITY":0.00023,"INCLINATION":86.4013,"RA_OF_ASC_NODE":27.4285,"ARG_OF_PERICENTER":89.2324,"MEAN_ANOMALY":270.9135,"EPHEMERIS_TYPE":0,"CLASSIFICATION_TYPE":"U","NORAD_CAT_ID":43929,"ELEMENT_SET_NO":999,"REV_AT_EPOCH":37744,"BSTAR":7.9577e-5,"MEAN_MOTION_DOT":2.43e-6,"MEAN_MOTION_DDOT":0},{"OBJECT_NAME":"IRIDIUM 170","OBJECT_ID":"2019-002J","EPOCH":"2026-03-28T19:51:23.859936","MEAN_MOTION":14.72248992,"ECCENTRICITY":0.0002469,"INCLINATION":86.6127,"RA_OF_ASC_NODE":27.1265,"ARG_OF_PERICENTER":82.7711,"MEAN_ANOMALY":277.3786,"EPHEMERIS_TYPE":0,"CLASSIFICATION_TYPE":"U","NORAD_CAT_ID":43930,"ELEMENT_SET_NO":999,"REV_AT_EPOCH":38743,"BSTAR":0.00016316,"MEAN_MOTION_DOT":1.053e-5,"MEAN_MOTION_DDOT":0},{"OBJECT_NAME":"IRIDIUM 167","OBJECT_ID":"2019-002K","EPOCH":"2026-03-28T20:26:02.849568","MEAN_MOTION":14.34219362,"ECCENTRICITY":0.0002282,"INCLINATION":86.4004,"RA_OF_ASC_NODE":27.1555,"ARG_OF_PERICENTER":94.5429,"MEAN_ANOMALY":265.6027,"EPHEMERIS_TYPE":0,"CLASSIFICATION_TYPE":"U","NORAD_CAT_ID":43931,"ELEMENT_SET_NO":999,"REV_AT_EPOCH":37744,"BSTAR":9.9582e-5,"MEAN_MOTION_DOT":2.99e-6,"MEAN_MOTION_DDOT":0},{"OBJECT_NAME":"IRIDIUM 181","OBJECT_ID":"2023-068S","EPOCH":"2026-03-28T18:05:18.806496","MEAN_MOTION":14.43309215,"ECCENTRICITY":0.0002548,"INCLINATION":86.4444,"RA_OF_ASC_NODE":90.4206,"ARG_OF_PERICENTER":84.9479,"MEAN_ANOMALY":275.2013,"EPHEMERIS_TYPE":0,"CLASSIFICATION_TYPE":"U","NORAD_CAT_ID":56726,"ELEMENT_SET_NO":999,"REV_AT_EPOCH":15083,"BSTAR":7.2446e-5,"MEAN_MOTION_DOT":2.64e-6,"MEAN_MOTION_DDOT":0},{"OBJECT_NAME":"IRIDIUM 177","OBJECT_ID":"2023-068T","EPOCH":"2026-03-28T19:25:07.103136","MEAN_MOTION":14.80219209,"ECCENTRICITY":0.0002163,"INCLINATION":86.2021,"RA_OF_ASC_NODE":6.9534,"ARG_OF_PERICENTER":85.3831,"MEAN_ANOMALY":274.7637,"EPHEMERIS_TYPE":0,"CLASSIFICATION_TYPE":"U","NORAD_CAT_ID":56727,"ELEMENT_SET_NO":999,"REV_AT_EPOCH":15447,"BSTAR":0.00017865,"MEAN_MOTION_DOT":1.384e-5,"MEAN_MOTION_DDOT":0},{"OBJECT_NAME":"IRIDIUM 174","OBJECT_ID":"2023-068U","EPOCH":"2026-03-28T19:33:34.191648","MEAN_MOTION":14.72253978,"ECCENTRICITY":0.0002433,"INCLINATION":86.6133,"RA_OF_ASC_NODE":27.2708,"ARG_OF_PERICENTER":80.5504,"MEAN_ANOMALY":279.5988,"EPHEMERIS_TYPE":0,"CLASSIFICATION_TYPE":"U","NORAD_CAT_ID":56728,"ELEMENT_SET_NO":999,"REV_AT_EPOCH":15419,"BSTAR":2.7799e-5,"MEAN_MOTION_DOT":2.0e-6,"MEAN_MOTION_DDOT":0},{"OBJECT_NAME":"IRIDIUM 178","OBJECT_ID":"2023-068V","EPOCH":"2026-03-28T20:46:43.678848","MEAN_MOTION":14.8023402,"ECCENTRICITY":0.0002842,"INCLINATION":86.6513,"RA_OF_ASC_NODE":58.9153,"ARG_OF_PERICENTER":89.7718,"MEAN_ANOMALY":270.3829,"EPHEMERIS_TYPE":0,"CLASSIFICATION_TYPE":"U","NORAD_CAT_ID":56729,"ELEMENT_SET_NO":999,"REV_AT_EPOCH":15448,"BSTAR":0.00018914,"MEAN_MOTION_DOT":1.463e-5,"MEAN_MOTION_DDOT":0},{"OBJECT_NAME":"IRIDIUM 179","OBJECT_ID":"2023-068W","EPOCH":"2026-03-28T20:38:57.673536","MEAN_MOTION":14.80224997,"ECCENTRICITY":0.0002637,"INCLINATION":86.6735,"RA_OF_ASC_NODE":67.6644,"ARG_OF_PERICENTER":96.3725,"MEAN_ANOMALY":263.7797,"EPHEMERIS_TYPE":0,"CLASSIFICATION_TYPE":"U","NORAD_CAT_ID":56730,"ELEMENT_SET_NO":999,"REV_AT_EPOCH":15448,"BSTAR":0.00018415,"MEAN_MOTION_DOT":1.425e-5,"MEAN_MOTION_DDOT":0}]
